NORAD_CAT_ID,OBJECT_NAME,OBJECT_TYPE,EPOCH,MEAN_MOTION,ECCENTRICITY,INCLINATION,RA_OF_ASC_NODE,ARG_OF_PERICENTER,MEAN_ANOMALY,BSTAR,MEAN_MOTION_DOT,MEAN_MOTION_DDOT,TLE_LINE0,TLE_LINE1,TLE_LINE2,SEMIMAJOR_AXIS,PERIOD,APOGEE,PERIGEE,DECAYED
53857.0,STARLINK-4809,PAYLOAD,2023-04-15 03:41:12,15.08858518,0.0001208,53.2188,10.1372,101.2538,258.859,0.00035043,5.296e-05,0.0,0 STARLINK-4809,1 53857U 22114AR  23105.15362051  .00005296  00000-0  35043-3 0  9992,2 53857  53.2188  10.1372 0001208 101.2538 258.8590 15.08858518 33026,6917.824,95.436,540.524,538.853,0.0
53857.0,STARLINK-4809,PAYLOAD,2023-04-15 21:10:27,15.08835881,0.0001805,53.2186,6.8622,134.4057,225.7083,-1.0018e-05,-4.48e-06,0.0,0 STARLINK-4809,1 53857U 22114AR  23105.88226692 -.00000448  00000-0 -10018-4 0  9994,2 53857  53.2186   6.8622 0001805 134.4057 225.7083 15.08835881 33131,6917.893,95.438,541.007,538.509,0.0
53857.0,STARLINK-4809,PAYLOAD,2023-04-16 03:32:00,15.08848325,9.02e-05,53.2187,5.6785,107.7311,252.378,0.00065575,0.00010166,0.0,0 STARLINK-4809,1 53857U 22114AR  23106.14722693  .00010166  00000-0  65575-3 0  9999,2 53857  53.2187   5.6785 0000902 107.7311 252.3780 15.08848325 33173,6917.855,95.437,540.344,539.096,0.0
53857.0,STARLINK-4809,PAYLOAD,2023-04-16 16:15:05,15.088377,0.0001277,53.2189,3.2986,110.9076,249.2053,0.00081634,0.00012727,0.0,0 STARLINK-4809,1 53857U 22114AR  23106.67715095  .00012727  00000-0  81634-3 0  9994,2 53857  53.2189   3.2986 0001277 110.9076 249.2053 15.08837700 32714,6917.887,95.438,540.636,538.869,0.0
53857.0,STARLINK-4809,PAYLOAD,2023-04-16 21:01:15,15.08841289,0.0001105,53.2188,2.4064,120.2962,239.8139,0.0010896,0.00017096,0.0,0 STARLINK-4809,1 53857U 22114AR  23106.87587139  .00017096  00000-0  10896-2 0  9997,2 53857  53.2188   2.4064 0001105 120.2962 239.8139 15.08841289 33289,6917.876,95.437,540.506,538.977,0.0
53857.0,STARLINK-4809,PAYLOAD,2023-04-17 01:47:24,15.08851415,8.16e-05,53.2182,1.5151,120.9729,239.1343,0.0013664,0.00021532,0.0,0 STARLINK-4809,1 53857U 22114AR  23107.07459041  .00021532  00000-0  13664-2 0  9996,2 53857  53.2182   1.5151 0000816 120.9729 239.1343 15.08851415 33312,6917.845,95.437,540.275,539.146,0.0
53857.0,STARLINK-4809,PAYLOAD,2023-04-17 16:05:53,15.08843637,0.0001151,53.2182,358.8399,99.3496,260.7627,0.00090382,0.00014127,0.0,0 STARLINK-4809,1 53857U 22114AR  23107.67075598  .00014127  00000-0  90382-3 0  9998,2 53857  53.2182 358.8399 0001151  99.3496 260.7627 15.08843637 32868,6917.869,95.437,540.531,538.938,0.0
53857.0,STARLINK-4809,PAYLOAD,2023-04-17 20:52:02,15.08838661,0.00011,53.2181,357.9484,99.2744,260.8373,0.00099434,0.00015572,0.0,0 STARLINK-4809,1 53857U 22114AR  23107.86947767  .00015572  00000-0  99434-3 0  9997,2 53857  53.2181 357.9484 0001100  99.2744 260.8373 15.08838661 33435,6917.884,95.438,540.51,538.989,0.0
53857.0,STARLINK-4809,PAYLOAD,2023-04-18 03:13:35,15.08845392,9.34e-05,53.2178,356.758,99.6778,260.4319,0.00053623,8.258e-05,0.0,0 STARLINK-4809,1 53857U 22114AR  23108.13443589  .00008258  00000-0  53623-3 0  9994,2 53857  53.2178 356.7580 0000934  99.6778 260.4319 15.08845392 33479,6917.864,95.437,540.375,539.083,0.0
53857.0,STARLINK-4809,PAYLOAD,2023-04-18 17:32:03,15.08840996,0.0001006,53.2162,354.0812,103.3101,256.8004,0.00030285,4.535e-05,0.0,0 STARLINK-4809,1 53857U 22114AR  23108.73059835  .00004535  00000-0  30285-3 0  9990,2 53857  53.2162 354.0812 0001006 103.3101 256.8004 15.08840996 33021,6917.877,95.437,540.438,539.046,0.0
53857.0,STARLINK-4809,PAYLOAD,2023-04-19 01:28:59,15.08847171,9.7e-05,53.2168,352.5946,92.373,267.7373,0.00035816,5.418e-05,0.0,0 STARLINK-4809,1 53857U 22114AR  23109.06179695  .00005418  00000-0  35816-3 0  9990,2 53857  53.2168 352.5946 0000970  92.3730 267.7373 15.08847171 33619,6917.858,95.437,540.395,539.052,0.0
53857.0,STARLINK-4809,PAYLOAD,2023-04-20 01:19:46,15.08851083,8.54e-05,53.2168,348.1333,105.7192,254.3894,0.00033007,4.971e-05,0.0,0 STARLINK-4809,1 53857U 22114AR  23110.05539556  .00004971  00000-0  33007-3 0  9990,2 53857  53.2168 348.1333 0000854 105.7192 254.3894 15.08851083 33226,6917.847,95.437,540.302,539.121,0.0
53857.0,STARLINK-4809,PAYLOAD,2023-04-20 21:59:47,15.08840732,7.98e-05,53.2169,344.2693,91.8075,268.3009,0.0001217,1.65e-05,0.0,0 STARLINK-4809,1 53857U 22114AR  23110.91651981  .00001650  00000-0  12170-3 0  9991,2 53857  53.2169 344.2693 0000798  91.8075 268.3009 15.08840732 33890,6917.878,95.438,540.295,539.191,0.0
53857.0,STARLINK-4809,PAYLOAD,2023-04-21 01:10:33,15.08846834,9.62e-05,53.2169,343.6742,95.9283,264.1819,0.00020892,3.039e-05,0.0,0 STARLINK-4809,1 53857U 22114AR  23111.04899743  .00003039  00000-0  20892-3 0  9999,2 53857  53.2169 343.6742 0000962  95.9283 264.1819 15.08846834 33372,6917.86,95.437,540.39,539.059,0.0
53857.0,STARLINK-4809,PAYLOAD,2023-04-21 09:07:29,15.08840707,0.0001379,53.218,342.1885,73.3423,286.772,0.0001062,1.403e-05,0.0,0 STARLINK-4809,1 53857U 22114AR  23111.38020163  .00001403  00000-0  10620-3 0  9999,2 53857  53.2180 342.1885 0001379  73.3423 286.7720 15.08840707 33426,6917.878,95.438,540.697,538.789,0.0
53857.0,STARLINK-4809,PAYLOAD,2023-04-21 15:29:01,15.08844199,0.0001095,53.2175,340.9981,84.6608,275.4509,3.2955e-05,2.37e-06,0.0,0 STARLINK-4809,1 53857U 22114AR  23111.64515937  .00000237  00000-0  32955-4 0  9996,2 53857  53.2175 340.9981 0001095  84.6608 275.4509 15.08844199 34002,6917.868,95.437,540.49,538.975,0.0
53857.0,STARLINK-4809,PAYLOAD,2023-04-22 01:01:20,15.08848205,0.0001259,53.2175,339.2145,78.9053,281.208,0.00010183,1.333e-05,0.0,0 STARLINK-4809,1 53857U 22114AR  23112.04259713  .00001333  00000-0  10183-3 0  9994,2 53857  53.2175 339.2145 0001259  78.9053 281.2080 15.08848205 34064,6917.855,95.437,540.591,538.849,0.0
53857.0,STARLINK-4809,PAYLOAD,2023-04-23 00:52:07,15.08848753,9.57e-05,53.2178,334.7515,96.3478,263.7624,0.00010588,1.398e-05,0.0,0 STARLINK-4809,1 53857U 22114AR  23113.03619334  .00001398  00000-0  10588-3 0  9993,2 53857  53.2178 334.7515 0000957  96.3478 263.7624 15.08848753 33670,6917.854,95.437,540.381,539.057,0.0
53857.0,STARLINK-4809,PAYLOAD,2023-04-23 16:45:59,15.08839803,0.000169,53.2177,331.7869,62.7284,297.388,0.00010049,1.312e-05,0.0,0 STARLINK-4809,1 53857U 22114AR  23113.69860111  .00001312  00000-0  10049-3 0  9994,2 53857  53.2177 331.7869 0001690  62.7284 297.3880 15.08839803 33779,6917.881,95.438,540.915,538.577,0.0
53857.0,STARLINK-4809,PAYLOAD,2023-04-24 02:18:17,15.08850985,0.0001493,53.2168,329.9998,64.5523,295.5623,0.00022685,3.325e-05,0.0,0 STARLINK-4809,1 53857U 22114AR  23114.09603714  .00003325  00000-0  22685-3 0  9998,2 53857  53.2168 329.9998 0001493  64.5523 295.5623 15.08850985 33834,6917.847,95.437,540.745,538.679,0.0
53857.0,STARLINK-4809,PAYLOAD,2023-04-25 00:33:39,15.08872891,0.0001166,53.2174,325.8336,82.936,277.1764,0.00062666,9.708e-05,0.0,0 STARLINK-4809,1 53857U 22114AR  23115.02337737  .00009708  00000-0  62666-3 0  9995,2 53857  53.2174 325.8336 0001166  82.9360 277.1764 15.08872891 34510,6917.78,95.435,540.451,538.838,0.0
53857.0,STARLINK-4809,PAYLOAD,2023-04-26 00:24:30,15.08783356,0.0001143,53.2167,321.3706,134.9701,225.1384,-0.00084805,-0.00013738,0.0,0 STARLINK-4809,1 53857U 22114AR  23116.01702502 -.00013738  00000-0 -84805-3 0  9990,2 53857  53.2167 321.3706 0001143 134.9701 225.1384 15.08783356 34660,6918.054,95.441,540.709,539.128,0.0
53857.0,STARLINK-4809,PAYLOAD,2023-04-26 19:29:07,15.08844103,6.23e-05,53.2162,317.8035,116.0726,244.0331,0.00051702,7.951e-05,0.0,0 STARLINK-4809,1 53857U 22114AR  23116.81189112  .00007951  00000-0  51702-3 0  9992,2 53857  53.2162 317.8035 0000623 116.0726 244.0331 15.08844103 34783,6917.868,95.437,540.164,539.302,0.0
53857.0,STARLINK-4809,PAYLOAD,2023-04-27 12:58:22,15.08848201,6.02e-05,53.2172,314.5365,111.451,248.6547,0.00090752,0.00014188,0.0,0 STARLINK-4809,1 53857U 22114AR  23117.54054291  .00014188  00000-0  90752-3 0  9990,2 53857  53.2172 314.5365 0000602 111.4510 248.6547 15.08848201 34895,6917.855,95.437,540.137,539.304,0.0
53857.0,STARLINK-4809,PAYLOAD,2023-04-27 17:44:32,15.0885097,2.63e-05,53.2173,313.6443,146.0153,214.0856,0.00092832,0.00014522,0.0,0 STARLINK-4809,1 53857U 22114AR  23117.73926018  .00014522  00000-0  92832-3 0  9999,2 53857  53.2173 313.6443 0000263 146.0153 214.0856 15.08850970 34383,6917.847,95.437,539.894,539.53,0.0
53857.0,STARLINK-4809,PAYLOAD,2023-04-27 22:30:40,15.08864033,0.0001,53.2171,312.7494,137.2764,222.8306,0.00080644,0.00012578,0.0,0 STARLINK-4809,1 53857U 22114AR  23117.93797177  .00012578  00000-0  80644-3 0  9990,2 53857  53.2171 312.7494 0001000 137.2764 222.8306 15.08864033 34413,6917.807,95.436,540.364,538.98,0.0
53857.0,STARLINK-4809,PAYLOAD,2023-04-28 06:27:36,15.08848728,0.0001602,53.2173,311.2655,94.5668,265.5507,0.00020774,3.02e-05,0.0,0 STARLINK-4809,1 53857U 22114AR  23118.26917292  .00003020  00000-0  20774-3 0  9999,2 53857  53.2173 311.2655 0001602  94.5668 265.5507 15.08848728 34469,6917.854,95.437,540.827,538.61,0.0
53857.0,STARLINK-4809,PAYLOAD,2023-04-29 12:39:55,15.08847023,7.03e-05,53.2176,305.6137,110.5025,249.6043,-1.1157e-05,-4.65e-06,0.0,0 STARLINK-4809,1 53857U 22114AR  23119.52772543 -.00000465  00000-0 -11157-4 0  9995,2 53857  53.2176 305.6137 0000703 110.5025 249.6043 15.08847023 35197,6917.859,95.437,540.21,539.238,0.0
53857.0,STARLINK-4809,PAYLOAD,2023-04-29 19:01:27,15.08847924,7.79e-05,53.2165,304.4238,109.1695,250.9381,6.7265e-05,7.83e-06,0.0,0 STARLINK-4809,1 53857U 22114AR  23119.79268459  .00000783  00000-0  67265-4 0  9992,2 53857  53.2165 304.4238 0000779 109.1695 250.9381 15.08847924 34698,6917.856,95.437,540.26,539.182,0.0
53857.0,STARLINK-4809,PAYLOAD,2023-04-29 22:12:14,15.08851494,5.71e-05,53.2159,303.828,103.9925,256.113,0.0001416,1.967e-05,0.0,0 STARLINK-4809,1 53857U 22114AR  23119.92516233  .00001967  00000-0  14160-3 0  9993,2 53857  53.2159 303.8280 0000571 103.9925 256.1130 15.08851494 35259,6917.845,95.437,540.105,539.315,0.0
